OBJECT_NAME,OBJECT_ID,EPOCH,MEAN_MOTION,ECCENTRICITY,INCLINATION,RA_OF_ASC_NODE,ARG_OF_PERICENTER,MEAN_ANOMALY,EPHEMERIS_TYPE,CLASSIFICATION_TYPE,NORAD_CAT_ID,ELEMENT_SET_NO,REV_AT_EPOCH,BSTAR,MEAN_MOTION_DOT,MEAN_MOTION_DDOT
AEHF-4 (USA 288),2018-079A,2026-06-19T12:02:42.084672,1.00271901,.00603589,1.4332,4.2189,355.9938,20.6747,0,U,43651,999,2832,0,-.281E-5,0
BEIDOU-3 G1,2018-085A,2026-06-19T12:03:38.882304,1.00270315,.00080747,2.8750,97.3039,350.2235,161.0557,0,U,43683,999,2808,0,-.116E-5,0
GSAT-29,2018-089A,2026-06-19T13:08:20.729760,1.00276626,.00038783,0.1002,264.3455,152.3758,103.2315,0,U,43698,999,2781,0,.78E-6,0
ES'HAIL 2,2018-090A,2026-06-19T12:59:59.031744,1.00272001,.0001759,0.0127,51.8972,72.3955,4.2456,0,U,43700,999,2770,0,.138E-5,0
GEO-KOMPSAT-2A,2018-100A,2026-06-18T22:05:14.395200,1.00269167,.0001856,0.0487,155.6876,291.5734,279.4528,0,U,43823,999,2764,0,-.35E-5,0
GSAT-11,2018-100B,2026-06-19T08:05:45.167712,1.00271396,.00077695,0.0298,238.0805,210.2444,14.6726,0,U,43824,999,2750,0,-.83E-6,0
GSAT-7A,2018-105A,2026-06-19T13:10:28.027200,1.00271744,.00020231,0.0265,93.4668,332.0410,102.6331,0,U,43864,999,2747,0,.21E-6,0
COSMOS 2533,2018-107A,2026-06-17T16:43:22.763136,1.00270501,.00009457,0.0491,89.9947,42.6956,94.0812,0,U,43867,999,2745,0,-.43E-6,0
TJS-3,2018-110A,2026-06-19T17:31:38.092800,1.00270135,.0002241,2.5524,80.4638,80.1954,158.4416,0,U,43874,999,2744,0,-.223E-5,0
ZHONGXING-2D,2019-001A,2026-06-19T15:35:31.635744,1.00270186,.00013448,0.0356,223.1667,112.6244,295.9734,0,U,43920,999,5410,0,-.343E-5,0
HELLAS-SAT 4 & SGS-1,2019-007A,2026-06-18T14:49:11.637984,1.00270754,.00047788,0.0763,127.4708,14.7150,25.9943,0,U,44034,999,2738,0,.146E-5,0
GSAT-31,2019-007B,2026-06-19T04:32:55.838688,1.00275420,.000164,0.0599,257.3021,109.4817,16.7356,0,U,44035,999,2698,0,.119E-5,0
NUSANTARA SATU,2019-009A,2026-06-18T23:52:54.455808,1.00270044,.00043319,0.0409,131.9512,345.3941,294.1131,0,U,44048,999,2678,0,-.241E-5,0
ZHONGXING-6C,2019-012A,2026-06-19T15:35:31.574400,1.00272589,.00140353,0.0805,72.9949,336.9428,222.2184,0,U,44067,999,2676,0,-.341E-5,0
WGS 10 (USA 291),2019-014A,2026-06-18T21:45:53.750304,1.00265376,.0000384,0.0171,18.9820,260.8384,14.1022,0,U,44071,999,2663,0,.41E-6,0
TIANLIAN 2-01,2019-017A,2026-06-19T13:14:35.132064,1.00271126,.00008196,0.5471,83.1171,32.6511,67.6593,0,U,44076,999,2667,0,-.112E-5,0
ARABSAT-6A,2019-021A,2026-06-19T13:01:13.912896,1.00275125,.00015043,0.0507,13.8280,338.6748,141.0398,0,U,44186,999,2618,0,.148E-5,0
BEIDOU-3 IGSO-1,2019-023A,2026-06-19T15:08:57.350112,1.00290861,.00255776,58.6985,37.6233,225.7008,349.9014,0,U,44204,999,723,0,-.227E-5,0
BEIDOU-2 G8,2019-027A,2026-06-19T15:16:23.110176,1.00270025,.00101299,1.6653,74.5070,282.0611,284.9181,0,U,44231,999,2610,0,-.254E-5,0
YAMAL 601,2019-031A,2026-06-19T13:06:35.898048,1.00272279,.0002451,0.0177,31.3653,58.7695,63.2843,0,U,44307,999,2595,0,.114E-5,0
AT&T T-16,2019-034A,2026-06-18T20:59:35.484000,1.00271203,.000081,0.0226,66.9403,239.0528,175.1501,0,U,44333,999,2565,0,-.122E-5,0
EUTELSAT 7C,2019-034B,2026-06-18T12:57:23.324256,1.00271203,.0003167,0.0727,176.5526,248.7431,42.8364,0,U,44334,999,684,0,.42E-6,0
BEIDOU-3 IGSO-2,2019-035A,2026-06-18T21:16:55.972416,1.00265889,.00396642,55.2463,158.8478,216.5160,330.6306,0,U,44337,999,2568,0,-.97E-6,0
COSMOS 2539,2019-048A,2026-06-19T02:39:59.489280,1.00273944,.00007477,0.0391,90.7372,357.0710,231.5178,0,U,44457,999,2524,0,.75E-6,0
EDRS-C,2019-049A,2026-06-18T22:09:14.010912,1.00265043,.0000548,0.0121,43.2391,20.8725,317.8232,0,U,44475,999,2522,0,-.27E-5,0
INTELSAT 39 (IS-39),2019-049B,2026-06-19T13:10:13.050624,1.00270262,.00009757,0.0006,355.2860,338.9576,193.0266,0,U,44476,999,2515,0,.28E-6,0
AMOS-17,2019-050A,2026-06-19T12:57:29.272032,1.00274001,.00018765,0.0239,315.2711,170.3031,353.5678,0,U,44479,999,2521,0,.104E-5,0
AEHF-5 (USA 292),2019-051A,2026-06-19T08:11:15.958752,1.00273187,.00662639,1.4520,336.4040,359.9383,147.1144,0,U,44481,999,2528,0,-.264E-5,0
EUTELSAT 5 WEST B,2019-067A,2026-06-19T09:25:50.814336,1.00269922,.00030561,0.0625,350.0585,98.0803,315.9587,0,U,44624,999,2445,0,-.49E-6,0
MEV-1,2019-067B,2026-06-16T22:18:40.152960,1.00269616,.00027946,0.8740,268.9828,179.8034,307.2103,0,U,44625,999,6174,0,-.149E-5,0
TJS-4,2019-070A,2026-06-19T14:59:04.203744,1.00273281,.00044286,0.0228,73.5150,325.0818,177.5029,0,U,44637,999,2456,0,-.176E-5,0
TIBA-1,2019-080A,2026-06-19T13:02:43.768896,1.00272187,.00019407,0.0556,18.6507,80.2755,39.9977,0,U,44800,999,2408,0,.15E-5,0
