AEHF-4 (USA 288)        
1 43651U 18079A   26170.50187598 -.00000281  00000+0  00000+0 0  9993
2 43651   1.4332   4.2189 0060358 355.9938  20.6747  1.00271901 28324
BEIDOU-3 G1             
1 43683U 18085A   26170.50253336 -.00000116  00000+0  00000+0 0  9996
2 43683   2.8750  97.3039 0008074 350.2235 161.0557  1.00270315 28080
GSAT-29                 
1 43698U 18089A   26170.54746215  .00000078  00000+0  00000+0 0  9999
2 43698   0.1002 264.3455 0003878 152.3758 103.2315  1.00276626 27814
ES'HAIL 2               
1 43700U 18090A   26170.54165546  .00000138  00000+0  00000+0 0  9994
2 43700   0.0127  51.8972 0001759  72.3955   4.2456  1.00272001 27701
GEO-KOMPSAT-2A          
1 43823U 18100A   26169.92030550 -.00000350  00000+0  00000+0 0  9995
2 43823   0.0487 155.6876 0001856 291.5734 279.4528  1.00269167 27648
GSAT-11                 
1 43824U 18100B   26170.33732833 -.00000083  00000+0  00000+0 0  9999
2 43824   0.0298 238.0805 0007769 210.2444  14.6726  1.00271396 27503
GSAT-7A                 
1 43864U 18105A   26170.54893550  .00000021  00000+0  00000+0 0  9996
2 43864   0.0265  93.4668 0002023 332.0410 102.6331  1.00271744 27478
COSMOS 2533             
1 43867U 18107A   26168.69679124 -.00000043  00000+0  00000+0 0  9998
2 43867   0.0491  89.9947 0000945  42.6956  94.0812  1.00270501 27458
TJS-3                   
1 43874U 18110A   26170.73030200 -.00000223  00000+0  00000+0 0  9994
2 43874   2.5524  80.4638 0002241  80.1954 158.4416  1.00270135 27446
ZHONGXING-2D            
1 43920U 19001A   26170.64967171 -.00000343  00000+0  00000+0 0  9995
2 43920   0.0356 223.1667 0001344 112.6244 295.9734  1.00270186 54107
HELLAS-SAT 4 & SGS-1    
1 44034U 19007A   26169.61749581  .00000146  00000+0  00000+0 0  9996
2 44034   0.0763 127.4708 0004778  14.7150  25.9943  1.00270754 27384
GSAT-31                 
1 44035U 19007B   26170.18953517  .00000119  00000+0  00000+0 0  9997
2 44035   0.0599 257.3021 0001640 109.4817  16.7356  1.00275420 26986
NUSANTARA SATU          
1 44048U 19009A   26169.99507472 -.00000241  00000+0  00000+0 0  9992
2 44048   0.0409 131.9512 0004331 345.3941 294.1131  1.00270044 26789
ZHONGXING-6C            
1 44067U 19012A   26170.64967100 -.00000341  00000+0  00000+0 0  9990
2 44067   0.0805  72.9949 0014035 336.9428 222.2184  1.00272589 26760
WGS 10 (USA 291)        
1 44071U 19014A   26169.90687211  .00000041  00000+0  00000+0 0  9992
2 44071   0.0171  18.9820 0000384 260.8384  14.1022  1.00265376 26638
TIANLIAN 2-01           
1 44076U 19017A   26170.55179551 -.00000112  00000+0  00000+0 0  9996
2 44076   0.5471  83.1171 0000819  32.6511  67.6593  1.00271126 26674
ARABSAT-6A              
1 44186U 19021A   26170.54252214  .00000148  00000+0  00000+0 0  9998
2 44186   0.0507  13.8280 0001504 338.6748 141.0398  1.00275125 26184
BEIDOU-3 IGSO-1         
1 44204U 19023A   26170.63121933 -.00000227  00000+0  00000+0 0  9993
2 44204  58.6985  37.6233 0025577 225.7008 349.9014  1.00290861  7230
BEIDOU-2 G8             
1 44231U 19027A   26170.63637859 -.00000254  00000+0  00000+0 0  9996
2 44231   1.6653  74.5070 0010129 282.0611 284.9181  1.00270025 26102
YAMAL 601               
1 44307U 19031A   26170.54624882  .00000114  00000+0  00000+0 0  9991
2 44307   0.0177  31.3653 0002451  58.7695  63.2843  1.00272279 25955
AT&T T-16               
1 44333U 19034A   26169.87471625 -.00000122  00000+0  00000+0 0  9992
2 44333   0.0226  66.9403 0000810 239.0528 175.1501  1.00271203 25659
EUTELSAT 7C             
1 44334U 19034B   26169.53985329  .00000042  00000+0  00000+0 0  9997
2 44334   0.0727 176.5526 0003167 248.7431  42.8364  1.00271203  6845
BEIDOU-3 IGSO-2         
1 44337U 19035A   26169.88675894 -.00000097  00000+0  00000+0 0  9993
2 44337  55.2463 158.8478 0039664 216.5160 330.6306  1.00265889 25689
COSMOS 2539             
1 44457U 19048A   26170.11110520  .00000075  00000+0  00000+0 0  9993
2 44457   0.0391  90.7372 0000747 357.0710 231.5178  1.00273944 25248
EDRS-C                  
1 44475U 19049A   26169.92307883 -.00000270  00000+0  00000+0 0  9999
2 44475   0.0121  43.2391 0000548  20.8725 317.8232  1.00265043 25221
INTELSAT 39 (IS-39)     
1 44476U 19049B   26170.54876216  .00000028  00000+0  00000+0 0  9991
2 44476   0.0006 355.2860 0000975 338.9576 193.0266  1.00270262 25154
AMOS-17                 
1 44479U 19050A   26170.53992213  .00000104  00000+0  00000+0 0  9996
2 44479   0.0239 315.2711 0001876 170.3031 353.5678  1.00274001 25213
AEHF-5 (USA 292)        
1 44481U 19051A   26170.34115693 -.00000264  00000+0  00000+0 0  9996
2 44481   1.4520 336.4040 0066263 359.9383 147.1144  1.00273187 25286
EUTELSAT 5 WEST B       
1 44624U 19067A   26170.39294924 -.00000049  00000+0  00000+0 0  9993
2 44624   0.0625 350.0585 0003056  98.0803 315.9587  1.00269922 24457
MEV-1                   
1 44625U 19067B   26167.92963140 -.00000149  00000+0  00000+0 0  9993
2 44625   0.8740 268.9828 0002794 179.8034 307.2103  1.00269616 61744
TJS-4                   
1 44637U 19070A   26170.62435421 -.00000176  00000+0  00000+0 0  9997
2 44637   0.0228  73.5150 0004428 325.0818 177.5029  1.00273281 24566
TIBA-1                  
1 44800U 19080A   26170.54356214  .00000150  00000+0  00000+0 0  9994
2 44800   0.0556  18.6507 0001940  80.2755  39.9977  1.00272187 24088
